STARLINK-4446           
1 53505U 22099AS  22241.66667824 -.01067476  00000+0 -11822-1 0  9993
2 53505  97.6558   0.4701 0001690  65.8567  24.5213 15.65714866  2889
STARLINK-4437           
1 53506U 22099AT  22241.66667824 -.01291900  00000+0 -14269-1 0  9993
2 53506  97.6558   0.4697 0001916  62.5901  26.4249 15.65860772  2889
STARLINK-4444           
1 53507U 22099AU  22241.66667824 -.01232325  00000+0 -13552-1 0  9994
2 53507  97.6557   0.4700 0001797  60.3144  30.6445 15.65836052  2885
STARLINK-4443           
1 53508U 22099AV  22241.66667824 -.01229055  00000+0 -13521-1 0  9997
2 53508  97.6559   0.4698 0001844  55.4971  34.1831 15.65819136  2882
STARLINK-4402           
1 53509U 22099AW  22241.66667824 -.01226562  00000+0 -13476-1 0  9997
2 53509  97.6558   0.4701 0001847  55.6202  36.6208 15.65845952  2889
STARLINK-4441           
1 53510U 22099AX  22241.66667824 -.01228715  00000+0 -13505-1 0  9994
2 53510  97.6558   0.4697 0001910  58.5712  33.0292 15.65840284  2881
FALCON 9 DEB            
1 53511U 22099AY  22241.39618611  .00128949  83004-5  44371-3 0  9998
2 53511  97.6792   0.5575 0009816 220.9676 139.0859 15.89569153  2622
FALCON 9 DEB            
1 53512U 22099AZ  22241.39154573  .00140876  94968-5  47096-3 0  9992
2 53512  97.6770   0.5586 0007383 217.5752 142.5005 15.90170422  2626
